STARLINK-36366
1 68122U 26044X   26090.83335647 -.01902953  00000+0 -21395-1 0  9992
2 68122  97.2853  52.0813 0001827  90.1417  33.1549 15.65612781  4960
